TEVEL2-6                
1 63215U 25052F   26068.64958975  .00021046  00000+0  70909-3 0  9996
2 63215  97.4016 325.0381 0004769  95.6604 264.5181 15.30760889 54861
STARLINK-33928          
1 64003U 25101K   26068.12771230  .00020029  00000+0  73480-3 0  9994
2 64003  43.0010   0.7654 0001008 269.0947  90.9789 15.27605382 46978
